{
    "links": {
        "self": "http://www.neowsapp.com/rest/v1/neo/3781047?api_key=iIulBulltgU6a56xZRHN4H3l9WmuAYTsLGpBGhQ2"
    },
    "id": "3781047",
    "neo_reference_id": "3781047",
    "name": "(2017 QG18)",
    "designation": "2017 QG18",
    "nasa_jpl_url": "http://ssd.jpl.nasa.gov/sbdb.cgi?sstr=3781047",
    "absolute_magnitude_h": 27.0,
    "estimated_diameter": {
        "kilometers": {
            "estimated_diameter_min": 0.0105816886,
            "estimated_diameter_max": 0.023661375
        },
        "meters": {
            "estimated_diameter_min": 10.5816885933,
            "estimated_diameter_max": 23.6613750114
        },
        "miles": {
            "estimated_diameter_min": 0.0065751544,
            "estimated_diameter_max": 0.0147024923
        },
        "feet": {
            "estimated_diameter_min": 34.7168272045,
            "estimated_diameter_max": 77.6291855923
        }
    },
    "is_potentially_hazardous_asteroid": false,
    "close_approach_data": [
        {
            "close_approach_date": "2010-11-19",
            "close_approach_date_full": "2010-Nov-19 22:00",
            "epoch_date_close_approach": 1290204000000,
            "relative_velocity": {
                "kilometers_per_second": "19.622050796",
                "kilometers_per_hour": "70639.3828655762",
                "miles_per_hour": "43892.5654255576"
            },
            "miss_distance": {
                "astronomical": "0.4329538424",
                "lunar": "168.4190446936",
                "kilometers": "64768972.631355688",
                "miles": "40245573.3810889744"
            },
            "orbiting_body": "Earth"
        },
        {
            "close_approach_date": "2017-09-01",
            "close_approach_date_full": "2017-Sep-01 15:48",
            "epoch_date_close_approach": 1504280880000,
            "relative_velocity": {
                "kilometers_per_second": "6.5803953626",
                "kilometers_per_hour": "23689.4233052671",
                "miles_per_hour": "14719.6863865422"
            },
            "miss_distance": {
                "astronomical": "0.0112186981",
                "lunar": "4.3640735609",
                "kilometers": "1678293.339933047",
                "miles": "1042843.1241561686"
            },
            "orbiting_body": "Earth"
        },
        {
            "close_approach_date": "2124-11-07",
            "close_approach_date_full": "2124-Nov-07 11:26",
            "epoch_date_close_approach": 4886652360000,
            "relative_velocity": {
                "kilometers_per_second": "12.0993273608",
                "kilometers_per_hour": "43557.5784988854",
                "miles_per_hour": "27064.9853733769"
            },
            "miss_distance": {
                "astronomical": "0.1854839535",
                "lunar": "72.1532579115",
                "kilometers": "27748004.362779045",
                "miles": "17241810.397659021"
            },
            "orbiting_body": "Earth"
        }
    ],
    "orbital_data": {
        "orbit_id": "4",
        "orbit_determination_date": "2017-09-13 06:18:59",
        "first_observation_date": "2017-08-24",
        "last_observation_date": "2017-08-30",
        "data_arc_in_days": 6,
        "observations_used": 42,
        "orbit_uncertainty": "7",
        "minimum_orbit_intersection": ".00484132",
        "jupiter_tisserand_invariant": "4.044",
        "epoch_osculation": "2459000.5",
        "eccentricity": ".4249273557661435",
        "semi_major_axis": "1.734931439342573",
        "inclination": "1.491778163482537",
        "ascending_node_longitude": "155.6643572292349",
        "orbital_period": "834.6836423502255",
        "perihelion_distance": ".9977116103871839",
        "perihelion_argument": "205.3573949730617",
        "aphelion_distance": "2.472151268297961",
        "perihelion_time": "2458851.114495958047",
        "mean_anomaly": "64.4301370321306",
        "mean_motion": ".4313011322305839",
        "equinox": "J2000",
        "orbit_class": {
            "orbit_class_type": "APO",
            "orbit_class_description": "Near-Earth asteroid orbits which cross the Earth’s orbit similar to that of 1862 Apollo",
            "orbit_class_range": "a (semi-major axis) > 1.0 AU; q (perihelion) < 1.017 AU"
        }
    },
    "is_sentry_object": false
}